satname,norad_id,inclination_deg,eccentricity,mean_motion_rev_per_day,perigee_km,apogee_km,l1,l2
STARLINK-1143,45179,53.048,0.0006062,15.59456676,385.12610788761503,393.33086180144073,1 45179U 20012B   26056.91671296  .00177237  00000+0  21551-2 0  9993,2 45179  53.0480  27.3642 0006062  49.7432 317.7122 15.59456676  5872
STARLINK-1202,45183,53.1616,0.0001538,15.30193532,474.18033325096985,476.288430288002,1 45183U 20012F   26056.53996433 -.00000094  00000+0  89472-5 0  9995,2 45183  53.1616  95.6842 0001538  86.7453 273.3723 15.30193532333096
STARLINK-1216,45185,53.1601,0.0001051,15.30199713,474.4956389571662,475.93621374228496,1 45185U 20012H   26056.39984627  .00000663  00000+0  34511-4 0  9997,2 45185  53.1601  96.3165 0001051  89.1603 270.9518 15.30199713333016
STARLINK-1225,45187,53.1603,0.0001284,15.30198624,474.3392069771335,476.09914884362115,1 45187U 20012K   26056.39675559  .00000200  00000+0  18888-4 0  9996,2 45187  53.1603  96.7703 0001284  83.4528 276.6619 15.30198624333052
STARLINK-1230,45189,53.1621,0.0001612,15.30206578,474.0906715798592,476.3001859548931,1 45189U 20012M   26056.40625032  .00000821  00000+0  39828-4 0  9997,2 45189  53.1621  96.7843 0001612  88.0107 272.1079 15.30206578330289
STARLINK-1234,45190,53.0451,0.0004559,15.59141059,387.0560745088351,393.22739105738583,1 45190U 20012N   26056.29242975  .00121619  00000+0  15094-2 0  9993,2 45190  53.0451  25.7583 0004559 293.1649  66.8883 15.59141059333947
STARLINK-1269,45197,53.1627,0.0001636,15.30194963,474.10889817561565,476.35131989369165,1 45197U 20012V   26056.40306481  .00000498  00000+0  28965-4 0  9990,2 45197  53.1627  96.6604 0001636 103.2911 256.8273 15.30194963333032
STARLINK-1154,45198,53.0494,0.0006952,15.4384577,430.03532725944024,439.50799546219605,1 45198U 20012W   26056.32964094  .00069671  00000+0  15069-2 0  9999,2 45198  53.0494  68.8633 0006952  37.4253 322.7236 15.43845770333383
STARLINK-1199,45201,53.1548,0.0001263,15.29308076,477.01357307082617,478.7454028356842,1 45201U 20012Z   26056.91671296  .00063818  00000+0  22082-2 0  9998,2 45201  53.1548  78.4576 0001263  94.6460  61.8490 15.29308076  5721
STARLINK-1209,45206,53.049,0.0005899,15.48445575,417.2617381963246,425.2836817721636,1 45206U 20012AE  26056.16401916  .00054770  00000+0  10155-2 0  9995,2 45206  53.0490  33.5318 0005899 254.1094 105.9263 15.48445575332977
STARLINK-1210,45207,53.0077,0.0003805,16.12165941,238.389652077748,243.42674547401566,1 45207U 20012AF  26056.92356383  .00879467  46604-3  79108-3 0  9993,2 45207  53.0077 319.8994 0003805 186.8480 173.2503 16.12165941335026
STARLINK-1231,45212,53.0504,0.0004165,15.19894886,503.2906926481837,509.02531038444704,1 45212U 20012AL  26056.25638223  .00044602  00000+0  20532-2 0  9998,2 45212  53.0504  72.8360 0004165  34.0815 326.0446 15.19894886333335
STARLINK-1271,45217,53.1487,9.21e-05,15.27731663,481.96312660984495,483.2268734442505,1 45217U 20012AR  26056.91671296  .00966712  00000+0  32487-1 0  9999,2 45217  53.1487  78.6135 0000921  87.8128  62.6700 15.27731663  5787
STARLINK-1191,45222,53.1611,0.0001359,15.30560684,473.20711928331366,475.06956772167814,1 45222U 20012AW  26056.25978686 -.00096300  00000+0 -32448-2 0  9992,2 45222  53.1611  56.5633 0001359  81.7514 278.3641 15.30560684333611
STARLINK-1212,45223,53.0505,0.0005781,15.4953584,414.1540307805417,422.0118202584281,1 45223U 20012AX  26056.91671296  .00086863  00000+0  15393-2 0  9994,2 45223  53.0505  46.6440 0005781  59.5821 235.7327 15.49535840  5885
STARLINK-1215,45225,53.1608,0.0001247,15.30179957,474.4202943919954,476.12953532356005,1 45225U 20012AZ  26056.37652180  .00001976  00000+0  78883-4 0  9994,2 45225  53.1608  55.4975 0001247  95.8714 264.2429 15.30179957333595
STARLINK-1221,45227,53.0671,0.0002745,15.41411027,440.07190293168696,443.8161274090153,1 45227U 20012BB  26056.14043557  .00016374  00000+0  39452-3 0  9999,2 45227  53.0671 329.0580 0002745  21.2410 338.8708 15.41411027334776
STARLINK-1222,45228,53.0565,0.0003857,15.4868046,417.96292432504015,423.2074586235449,1 45228U 20012BC  26056.36260716  .00025416  00000+0  47372-3 0  9999,2 45228  53.0565  41.8746 0003857  50.0795 310.0551 15.48680460333710
STARLINK-1226,45229,53.1616,0.0001289,15.31038761,471.82874924990574,473.59489807664613,1 45229U 20012BD  26056.27610236 -.00000072  00000+0  95623-5 0  9992,2 45229  53.1616  56.2851 0001289  87.6966 272.4182 15.31038761333511
STARLINK-1227,45230,53.1598,0.0001082,15.3102133,472.0225549992256,473.50508993720723,1 45230U 20012BE  26056.36904516 -.00000925  00000+0 -18513-4 0  9991,2 45230  53.1598  56.1684 0001082  99.3060 260.8064 15.31021330333649
STARLINK-1246,45235,53.1605,0.0001625,15.30193856,474.1197416649102,476.34708704957575,1 45235U 20012BK  26056.34718050 -.00000127  00000+0  78636-5 0  9996,2 45235  53.1605  96.5784 0001625  83.3901 276.7285 15.30193856333083
STARLINK-1270,45237,53.0517,0.0004031,15.44706175,429.49629200350137,434.9868191950245,1 45237U 20012BM  26056.36281414  .00081741  00000+0  17139-2 0  9997,2 45237  53.0517  46.3378 0004031  34.4742 325.6525 15.44706175333767
STARLINK-1279,45360,53.0442,0.0003059,15.54922179,400.30469504731354,404.45301464730983,1 45360U 20019A   26056.49443360  .00103060  00000+0  15016-2 0  9996,2 45360  53.0442 157.7532 0003059 163.0382 197.0730 15.54922179328777
STARLINK-1301,45361,53.0422,0.00037,15.62190151,378.8309508422026,383.8329578684261,1 45361U 20019B   26056.91671296  .00080352  00000+0  89389-3 0  9998,2 45361  53.0422 161.7452 0003700 169.3838 285.0531 15.62190151  5359
STARLINK-1262,45366,53.0964,9.27e-05,15.16360974,516.210684781201,517.4890153432025,1 45366U 20019G   26056.91671296  .00087191  00000+0  44023-2 0  9996,2 45366  53.0964 219.1945 0000927 119.8491 218.9616 15.16360974  5735
STARLINK-1273,45367,53.0507,4.84e-05,15.4298451,436.97676856170347,437.6365035056715,1 45367U 20019H   26056.81482049  .00033793  00000+0  76125-3 0  9990,2 45367  53.0507 211.2387 0000484 268.3012  91.7938 15.42984510328064
STARLINK-1276,45368,53.0547,0.0001174,15.06396813,546.4082885840544,548.0343627189168,1 45368U 20019J   26056.47684508  .00000327  00000+0  40866-4 0  9998,2 45368  53.0547 221.4430 0001174  90.4086 269.7038 15.06396813327894
STARLINK-1277,45369,53.0519,6.38e-05,15.46565709,426.34727399699204,427.21558158837706,1 45369U 20019K   26056.81241124  .00076190  00000+0  15010-2 0  9992,2 45369  53.0519 209.4051 0000638 347.6283  12.4707 15.46565709328094
STARLINK-1281,45370,53.0859,5.03e-05,15.14292161,522.7812020677611,523.4754693605346,1 45370U 20019L   26056.91671296  .00117730  00000+0  62699-2 0  9993,2 45370  53.0859 219.3496 0000503 104.5680 248.7045 15.14292161  5723
STARLINK-1300,45374,53.0828,0.0002102,15.13870328,522.9593646297517,525.8611955062916,1 45374U 20019Q   26056.91671296  .00117646  00000+0  63402-2 0  9996,2 45374  53.0828 219.3870 0002102  87.5595 124.7136 15.13870328  5787
STARLINK-1302,45375,53.0534,0.0002279,15.47501355,422.4880215753883,425.5884530485546,1 45375U 20019R   26056.45356377  .00029292  00000+0  56726-3 0  9997,2 45375  53.0534 210.4577 0002279 215.3949 144.6907 15.47501355328049
STARLINK-1304,45376,53.0506,0.0002539,15.45960947,426.8277628921496,430.2842015885308,1 45376U 20019S   26056.82354286  .00075197  00000+0  15128-2 0  9991,2 45376  53.0506 206.1899 0002539 194.2336 165.8599 15.45960947328138
STARLINK-1305,45377,53.0447,0.0003698,15.50450806,412.89664483977776,417.92115138602276,1 45377U 20019T   26056.79473627  .00087445  00000+0  15007-2 0  9994,2 45377  53.0447 189.4926 0003698 110.2040 249.9366 15.50450806328370
STARLINK-1319,45379,53.0418,0.0003619,15.56335744,395.8201811404597,400.7249463827093,1 45379U 20019V   26056.38382984  .00058176  00000+0  81206-3 0  9990,2 45379  53.0418 189.8140 0003619 131.9577 228.1743 15.56335744328333
STARLINK-1266,45383,53.0524,0.0001818,15.43318102,435.08561495874255,437.56335315434535,1 45383U 20019Z   26056.36302106  .00019071  00000+0  42966-3 0  9992,2 45383  53.0524 191.6110 0001818 309.0235  51.0608 15.43318102328295
STARLINK-1267,45384,53.0507,0.0004877,15.4739835,421.0225308629115,427.6576670252216,1 45384U 20019AA  26056.35717467  .00093570  00000+0  17847-2 0  9997,2 45384  53.0507 186.0496 0004877 199.5483 160.5337 15.47398350328378
STARLINK-1272,45386,53.0444,0.0002829,15.5379198,403.74733132286656,407.5856073258101,1 45386U 20019AC  26056.52138786  .00105359  00000+0  15991-2 0  9996,2 45386  53.0444 168.6259 0002829 149.2731 210.8445 15.53791980328637
STARLINK-1274,45387,53.0276,0.0005669,15.45410936,426.3112558653647,434.030515346064,1 45387U 20019AD  26056.50464843  .00042680  00000+0  88204-3 0  9996,2 45387  53.0276 161.0870 0005669 191.5402 168.5475 15.45410936328730
STARLINK-1280,45388,53.0426,0.0002296,15.63352652,376.4294633954478,379.53187262859865,1 45388U 20019AE  26056.91671296  .00105912  00000+0  11209-2 0  9992,2 45388  53.0426 180.2380 0002296 131.7863 337.0004 15.63352652  5932
STARLINK-1283,45389,53.0457,0.0006476,15.53573162,401.9098417930654,410.6970490579806,1 45389U 20019AF  26056.50833094  .00106330  00000+0  16254-2 0  9994,2 45389  53.0457 168.8861 0006476 191.6610 168.4250 15.53573162328636
STARLINK-1284,45390,53.0504,7.88e-05,15.49383013,417.99424814165104,419.06540283334834,1 45390U 20019AG  26056.36726715  .00088994  00000+0  15857-2 0  9994,2 45390  53.0504 190.1697 0000788 302.0566  58.0365 15.49383013328319
STARLINK-1297,45395,53.0484,0.0001757,15.51594644,410.87663998984044,413.2627186169475,1 45395U 20019AM  26056.84688605  .00095191  00000+0  15666-2 0  9992,2 45395  53.0484 187.7721 0001757 328.1070  31.9832 15.51594644327570
STARLINK-1307,45397,53.0533,7.92e-05,15.49274812,418.3079525042285,419.38459465476353,1 45397U 20019AP  26056.36446602  .00024709  00000+0  45143-3 0  9991,2 45397  53.0533 189.8466 0000792  61.2936 298.8151 15.49274812328141
